[{"OBJECT_NAME":"STARLINK-3259","OBJECT_ID":"2021-125AN","EPOCH":"2026-03-09T16:47:58.307424","MEAN_MOTION":15.08836946,"ECCENTRICITY":0.00012398,"INCLINATION":53.2168,"RA_OF_ASC_NODE":239.0767,"ARG_OF_PERICENTER":85.26,"MEAN_ANOMALY":274.8534,"EPHEMERIS_TYPE":0,"CLASSIFICATION_TYPE":"U","NORAD_CAT_ID":50192,"ELEMENT_SET_NO":999,"REV_AT_EPOCH":23673,"BSTAR":0.00017246162,"MEAN_MOTION_DOT":2.458e-5,"MEAN_MOTION_DDOT":0},{"OBJECT_NAME":"UNKNOWN","OBJECT_ID":"","EPOCH":"2026-03-09T07:01:12.592704","MEAN_MOTION":13.64489444,"ECCENTRICITY":0.0645911,"INCLINATION":65.6021,"RA_OF_ASC_NODE":22.7331,"ARG_OF_PERICENTER":25.8878,"MEAN_ANOMALY":337.3037,"EPHEMERIS_TYPE":0,"CLASSIFICATION_TYPE":"U","NORAD_CAT_ID":87163,"ELEMENT_SET_NO":999,"REV_AT_EPOCH":58932,"BSTAR":0.0022769,"MEAN_MOTION_DOT":7.8e-5,"MEAN_MOTION_DDOT":0}]
